{
  "type": "FeatureCollection",
  "features": [
    {
      "type": "Feature",
      "properties": {
        "norad_id": 41831,
        "name": "FENGYUN 1C DEB",
        "group": "fengyun-1c-debris",
        "lat": -46.20857385920355,
        "lon": 66.64185821415572,
        "alt_km": 825.4755400442073,
        "timestamp": "2025-12-16T13:52:37.813796+00:00",
        "meta_object_name": "FENGYUN 1C DEB",
        "meta_object_id": "1999-025EYJ",
        "meta_epoch": "2025-12-15T02:41:58.570944",
        "meta_mean_motion": 14.24585493,
        "meta_eccentricity": 0.00563701,
        "meta_inclination": 98.7349,
        "meta_ra_of_asc_node": 55.956,
        "meta_arg_of_pericenter": 214.434,
        "meta_mean_anomaly": 145.3182,
        "meta_ephemeris_type": 0,
        "meta_classification_type": "U",
        "meta_norad_cat_id": 41831,
        "meta_element_set_no": 999,
        "meta_rev_at_epoch": 47293,
        "meta_bstar": 0.001206011,
        "meta_mean_motion_dot": 2.803e-05,
        "meta_mean_motion_ddot": 0,
        "tle_line1": "1 41831U 99025EYJ 25349.11248346  .00002803  00000+0  12060-2 0  9997",
        "tle_line2": "2 41831  98.7349  55.9560 0056370 214.4340 145.3182 14.24585493472932"
      },
      "geometry": {
        "type": "Point",
        "coordinates": [
          66.64185821415572,
          -46.20857385920355
        ]
      }
    },
    {
      "type": "Feature",
      "properties": {
        "norad_id": 41832,
        "name": "FENGYUN 1C DEB",
        "group": "fengyun-1c-debris",
        "lat": 2.8506516146052836,
        "lon": 54.13772695023526,
        "alt_km": 847.5749045059347,
        "timestamp": "2025-12-16T13:52:37.813806+00:00",
        "meta_object_name": "FENGYUN 1C DEB",
        "meta_object_id": "1999-025EYK",
        "meta_epoch": "2025-12-15T04:08:33.320832",
        "meta_mean_motion": 14.2425582,
        "meta_eccentricity": 0.00556922,
        "meta_inclination": 98.7295,
        "meta_ra_of_asc_node": 53.18,
        "meta_arg_of_pericenter": 218.6119,
        "meta_mean_anomaly": 141.1071,
        "meta_ephemeris_type": 0,
        "meta_classification_type": "U",
        "meta_norad_cat_id": 41832,
        "meta_element_set_no": 999,
        "meta_rev_at_epoch": 47385,
        "meta_bstar": 0.0012524364,
        "meta_mean_motion_dot": 2.893e-05,
        "meta_mean_motion_ddot": 0,
        "tle_line1": "1 41832U 99025EYK 25349.17260788  .00002893  00000+0  12524-2 0  9992",
        "tle_line2": "2 41832  98.7295  53.1800 0055692 218.6119 141.1071 14.24255820473857"
      },
      "geometry": {
        "type": "Point",
        "coordinates": [
          54.13772695023526,
          2.8506516146052836
        ]
      }
    },
    {
      "type": "Feature",
      "properties": {
        "norad_id": 41833,
        "name": "FENGYUN 1C DEB",
        "group": "fengyun-1c-debris",
        "lat": -51.64703402879485,
        "lon": -131.0849338556331,
        "alt_km": 775.7756718014234,
        "timestamp": "2025-12-16T13:52:37.813815+00:00",
        "meta_object_name": "FENGYUN 1C DEB",
        "meta_object_id": "1999-025EYL",
        "meta_epoch": "2025-12-15T03:06:22.002048",
        "meta_mean_motion": 14.25832239,
        "meta_eccentricity": 0.00545341,
        "meta_inclination": 98.7483,
        "meta_ra_of_asc_node": 58.691,
        "meta_arg_of_pericenter": 216.4409,
        "meta_mean_anomaly": 143.3054,
        "meta_ephemeris_type": 0,
        "meta_classification_type": "U",
        "meta_norad_cat_id": 41833,
        "meta_element_set_no": 999,
        "meta_rev_at_epoch": 47398,
        "meta_bstar": 0.0013084418,
        "meta_mean_motion_dot": 3.117e-05,
        "meta_mean_motion_ddot": 0,
        "tle_line1": "1 41833U 99025EYL 25349.12942132  .00003117  00000+0  13084-2 0  9990",
        "tle_line2": "2 41833  98.7483  58.6910 0054534 216.4409 143.3054 14.25832239473986"
      },
      "geometry": {
        "type": "Point",
        "coordinates": [
          -131.0849338556331,
          -51.64703402879485
        ]
      }
    },
    {
      "type": "Feature",
      "properties": {
        "norad_id": 43213,
        "name": "FENGYUN 1C DEB",
        "group": "fengyun-1c-debris",
        "lat": 47.91752581799499,
        "lon": 45.151454863377715,
        "alt_km": 846.5337656716747,
        "timestamp": "2025-12-16T13:52:37.813826+00:00",
        "meta_object_name": "FENGYUN 1C DEB",
        "meta_object_id": "1999-025EYM",
        "meta_epoch": "2025-12-11T15:35:29.120640",
        "meta_mean_motion": 14.2384299,
        "meta_eccentricity": 0.00550482,
        "meta_inclination": 98.7346,
        "meta_ra_of_asc_node": 50.0589,
        "meta_arg_of_pericenter": 230.6376,
        "meta_mean_anomaly": 128.9918,
        "meta_ephemeris_type": 0,
        "meta_classification_type": "U",
        "meta_norad_cat_id": 43213,
        "meta_element_set_no": 999,
        "meta_rev_at_epoch": 40357,
        "meta_bstar": 0.0023267016,
        "meta_mean_motion_dot": 5.369e-05,
        "meta_mean_motion_ddot": 0,
        "tle_line1": "1 43213U 99025EYM 25345.64964260  .00005369  00000+0  23267-2 0  9998",
        "tle_line2": "2 43213  98.7346  50.0589 0055048 230.6376 128.9918 14.23842990403577"
      },
      "geometry": {
        "type": "Point",
        "coordinates": [
          45.151454863377715,
          47.91752581799499
        ]
      }
    },
    {
      "type": "Feature",
      "properties": {
        "norad_id": 43214,
        "name": "FENGYUN 1C DEB",
        "group": "fengyun-1c-debris",
        "lat": -21.224758251193123,
        "lon": 58.69027907627214,
        "alt_km": 838.0996345118274,
        "timestamp": "2025-12-16T13:52:37.813836+00:00",
        "meta_object_name": "FENGYUN 1C DEB",
        "meta_object_id": "1999-025EYN",
        "meta_epoch": "2025-12-15T04:15:18.438336",
        "meta_mean_motion": 14.24148849,
        "meta_eccentricity": 0.00555606,
        "meta_inclination": 98.7367,
        "meta_ra_of_asc_node": 53.8741,
        "meta_arg_of_pericenter": 219.7816,
        "meta_mean_anomaly": 139.9283,
        "meta_ephemeris_type": 0,
        "meta_classification_type": "U",
        "meta_norad_cat_id": 43214,
        "meta_element_set_no": 999,
        "meta_rev_at_epoch": 40438,
        "meta_bstar": 0.0012672116,
        "meta_mean_motion_dot": 2.921e-05,
        "meta_mean_motion_ddot": 0,
        "tle_line1": "1 43214U 99025EYN 25349.17729674  .00002921  00000+0  12672-2 0  9998",
        "tle_line2": "2 43214  98.7367  53.8741 0055560 219.7816 139.9283 14.24148849404388"
      },
      "geometry": {
        "type": "Point",
        "coordinates": [
          58.69027907627214,
          -21.224758251193123
        ]
      }
    },
    {
      "type": "Feature",
      "properties": {
        "norad_id": 43358,
        "name": "FENGYUN 1C DEB",
        "group": "fengyun-1c-debris",
        "lat": 0.8223627660774792,
        "lon": 109.941690451461,
        "alt_km": 1379.3243090244532,
        "timestamp": "2025-12-16T13:52:37.813846+00:00",
        "meta_object_name": "FENGYUN 1C DEB",
        "meta_object_id": "1999-025EYP",
        "meta_epoch": "2025-12-15T21:44:55.876128",
        "meta_mean_motion": 13.40380689,
        "meta_eccentricity": 0.03677435,
        "meta_inclination": 98.6872,
        "meta_ra_of_asc_node": 109.4893,
        "meta_arg_of_pericenter": 194.7309,
        "meta_mean_anomaly": 164.2875,
        "meta_ephemeris_type": 0,
        "meta_classification_type": "U",
        "meta_norad_cat_id": 43358,
        "meta_element_set_no": 999,
        "meta_rev_at_epoch": 53773,
        "meta_bstar": 0.0017537317,
        "meta_mean_motion_dot": 1.392e-05,
        "meta_mean_motion_ddot": 0,
        "tle_line1": "1 43358U 99025EYP 25349.90620227  .00001392  00000+0  17537-2 0  9998",
        "tle_line2": "2 43358  98.6872 109.4893 0367743 194.7309 164.2875 13.40380689537732"
      },
      "geometry": {
        "type": "Point",
        "coordinates": [
          109.941690451461,
          0.8223627660774792
        ]
      }
    },
    {
      "type": "Feature",
      "properties": {
        "norad_id": 43359,
        "name": "FENGYUN 1C DEB",
        "group": "fengyun-1c-debris",
        "lat": -44.456597872200994,
        "lon": -118.3272430037068,
        "alt_km": 860.6397059801475,
        "timestamp": "2025-12-16T13:52:37.813856+00:00",
        "meta_object_name": "FENGYUN 1C DEB",
        "meta_object_id": "1999-025EYQ",
        "meta_epoch": "2025-12-15T18:15:37.224864",
        "meta_mean_motion": 14.23190366,
        "meta_eccentricity": 0.00734138,
        "meta_inclination": 99.0538,
        "meta_ra_of_asc_node": 69.8335,
        "meta_arg_of_pericenter": 5.991,
        "meta_mean_anomaly": 354.2128,
        "meta_ephemeris_type": 0,
        "meta_classification_type": "U",
        "meta_norad_cat_id": 43359,
        "meta_element_set_no": 999,
        "meta_rev_at_epoch": 47792,
        "meta_bstar": 0.0013705337,
        "meta_mean_motion_dot": 3.139e-05,
        "meta_mean_motion_ddot": 0,
        "tle_line1": "1 43359U 99025EYQ 25349.76084751  .00003139  00000+0  13705-2 0  9993",
        "tle_line2": "2 43359  99.0538  69.8335 0073413   5.9910 354.2128 14.23190366477925"
      },
      "geometry": {
        "type": "Point",
        "coordinates": [
          -118.3272430037068,
          -44.456597872200994
        ]
      }
    }
  ]
}